*******************************************************************************
Ephemeris / WWW_USER Wed Nov  5 05:16:18 2025 Pasadena, USA      / Horizons    
*******************************************************************************
Target body name: Titan (606)                     {source: sat441l}
Center body name: Earth (399)                     {source: DE441}
Center-site name: Mauna Kea
*******************************************************************************
Start time      : A.D. 2018-Sep-13 04:36:00.0000 UT      
Stop  time      : A.D. 2018-Sep-13 15:59:00.0000 UT      
Step-size       : 1 minutes
*******************************************************************************
Target pole/equ : IAU_TITAN                       {West-longitude positive}
Target radii    : 2575.15, 2574.78, 2574.47 km    {Equator_a, b, pole_c}       
Center geodetic : 204.5278, 19.8260847, 4.21024   {E-lon(deg),Lat(deg),Alt(km)}
Center cylindric: 204.5278, 6006.35451, 2151.0229 {E-lon(deg),Dxy(km),Dz(km)}
Center pole/equ : ITRF93                          {East-longitude positive}
Center radii    : 6378.137, 6378.137, 6356.752 km {Equator_a, b, pole_c}       
Target primary  : Saturn
Vis. interferer : MOON (R_eq= 1737.400) km        {source: DE441}
Rel. light bend : Sun                             {source: DE441}
Rel. lght bnd GM: 1.3271E+11 km^3/s^2                                          
Atmos refraction: NO (AIRLESS)
RA format       : HMS
Time format     : CAL 
Calendar mode   : Mixed Julian/Gregorian
RTS-only print  : NO       
EOP file        : eop.251104.p260131                                           
EOP coverage    : DATA-BASED 1962-JAN-20 TO 2025-NOV-04. PREDICTS-> 2026-JAN-30
Units conversion: 1 au= 149597870.700 km, c= 299792.458 km/s, 1 day= 86400.0 s 
Table cut-offs 1: Elevation (-90.0deg=NO ),Airmass (>38.000=NO), Daylight (YES)
Table cut-offs 2: Solar elongation (  0.0,180.0=NO ),Local Hour Angle( 0.0=NO )
Table cut-offs 3: RA/DEC angular rate (     0.0=NO )                           
*******************************************************************************
 Date__(UT)__HR:MN     R.A._________(ICRF)_________DEC
******************************************************
$$SOE
 2018-Sep-13 09:18     18 10 00.038056 -22 42 31.49590
 2018-Sep-13 09:19     18 10 00.043205 -22 42 31.49716
 2018-Sep-13 09:20     18 10 00.048356 -22 42 31.49842
 2018-Sep-13 09:21     18 10 00.053508 -22 42 31.49968
 2018-Sep-13 09:22     18 10 00.058662 -22 42 31.50095
 2018-Sep-13 09:23     18 10 00.063818 -22 42 31.50222
 2018-Sep-13 09:24     18 10 00.068975 -22 42 31.50349
 2018-Sep-13 09:25     18 10 00.074134 -22 42 31.50476
 2018-Sep-13 09:26     18 10 00.079294 -22 42 31.50604
 2018-Sep-13 09:27     18 10 00.084456 -22 42 31.50732
 2018-Sep-13 09:28     18 10 00.089620 -22 42 31.50861
 2018-Sep-13 09:29     18 10 00.094785 -22 42 31.50990
 2018-Sep-13 09:30     18 10 00.099952 -22 42 31.51119
 2018-Sep-13 09:31     18 10 00.105120 -22 42 31.51248
 2018-Sep-13 09:32     18 10 00.110290 -22 42 31.51378
 2018-Sep-13 09:33     18 10 00.115462 -22 42 31.51508
 2018-Sep-13 09:34     18 10 00.120635 -22 42 31.51638
 2018-Sep-13 09:35     18 10 00.125809 -22 42 31.51769
 2018-Sep-13 09:36     18 10 00.130986 -22 42 31.51900
 2018-Sep-13 09:37     18 10 00.136163 -22 42 31.52032
 2018-Sep-13 09:38     18 10 00.141343 -22 42 31.52163
 2018-Sep-13 09:39     18 10 00.146524 -22 42 31.52295
 2018-Sep-13 09:40     18 10 00.151707 -22 42 31.52428
 2018-Sep-13 09:41     18 10 00.156891 -22 42 31.52561
 2018-Sep-13 09:42     18 10 00.162077 -22 42 31.52694
 2018-Sep-13 09:43     18 10 00.167265 -22 42 31.52827
 2018-Sep-13 09:44     18 10 00.172454 -22 42 31.52961
 2018-Sep-13 09:45     18 10 00.177644 -22 42 31.53095
 2018-Sep-13 09:46     18 10 00.182837 -22 42 31.53230
 2018-Sep-13 09:47     18 10 00.188031 -22 42 31.53365
 2018-Sep-13 09:48     18 10 00.193226 -22 42 31.53500
 2018-Sep-13 09:49     18 10 00.198424 -22 42 31.53635
 2018-Sep-13 09:50     18 10 00.203622 -22 42 31.53771
 2018-Sep-13 09:51     18 10 00.208823 -22 42 31.53908
 2018-Sep-13 09:52     18 10 00.214025 -22 42 31.54044
 2018-Sep-13 09:53     18 10 00.219229 -22 42 31.54182
 2018-Sep-13 09:54     18 10 00.224434 -22 42 31.54319
 2018-Sep-13 09:55     18 10 00.229641 -22 42 31.54457
 2018-Sep-13 09:56     18 10 00.234850 -22 42 31.54595
 2018-Sep-13 09:57     18 10 00.240060 -22 42 31.54734
 2018-Sep-13 09:58     18 10 00.245272 -22 42 31.54873
 2018-Sep-13 09:59     18 10 00.250485 -22 42 31.55012
 2018-Sep-13 10:00     18 10 00.255700 -22 42 31.55152
 2018-Sep-13 10:01     18 10 00.260917 -22 42 31.55292
 2018-Sep-13 10:02     18 10 00.266136 -22 42 31.55433
 2018-Sep-13 10:03     18 10 00.271356 -22 42 31.55574
 2018-Sep-13 10:04     18 10 00.276577 -22 42 31.55715
 2018-Sep-13 10:05     18 10 00.281801 -22 42 31.55857
 2018-Sep-13 10:06     18 10 00.287026 -22 42 31.55999
 2018-Sep-13 10:07     18 10 00.292252 -22 42 31.56142
 2018-Sep-13 10:08     18 10 00.297480 -22 42 31.56285
 2018-Sep-13 10:09     18 10 00.302710 -22 42 31.56429
 2018-Sep-13 10:10     18 10 00.307942 -22 42 31.56573
 2018-Sep-13 10:11     18 10 00.313175 -22 42 31.56717
 2018-Sep-13 10:12     18 10 00.318410 -22 42 31.56862
 2018-Sep-13 10:13     18 10 00.323646 -22 42 31.57007
 2018-Sep-13 10:14     18 10 00.328884 -22 42 31.57153
 2018-Sep-13 10:15     18 10 00.334124 -22 42 31.57299
 2018-Sep-13 10:16     18 10 00.339365 -22 42 31.57445
 2018-Sep-13 10:17     18 10 00.344609 -22 42 31.57592
 2018-Sep-13 10:18     18 10 00.349853 -22 42 31.57739
 2018-Sep-13 10:19     18 10 00.355100 -22 42 31.57887
 2018-Sep-13 10:20     18 10 00.360348 -22 42 31.58036
 2018-Sep-13 10:21     18 10 00.365597 -22 42 31.58184
 2018-Sep-13 10:22     18 10 00.370849 -22 42 31.58333
 2018-Sep-13 10:23     18 10 00.376102 -22 42 31.58483
 2018-Sep-13 10:24     18 10 00.381356 -22 42 31.58633
 2018-Sep-13 10:25     18 10 00.386613 -22 42 31.58784
 2018-Sep-13 10:26     18 10 00.391870 -22 42 31.58935
 2018-Sep-13 10:27     18 10 00.397130 -22 42 31.59086
 2018-Sep-13 10:28     18 10 00.402391 -22 42 31.59238
 2018-Sep-13 10:29     18 10 00.407654 -22 42 31.59391
 2018-Sep-13 10:30     18 10 00.412919 -22 42 31.59544
 2018-Sep-13 10:31     18 10 00.418185 -22 42 31.59697
 2018-Sep-13 10:32     18 10 00.423453 -22 42 31.59851
 2018-Sep-13 10:33     18 10 00.428723 -22 42 31.60005
 2018-Sep-13 10:34     18 10 00.433994 -22 42 31.60160
 2018-Sep-13 10:35     18 10 00.439267 -22 42 31.60315
 2018-Sep-13 10:36     18 10 00.444541 -22 42 31.60471
 2018-Sep-13 10:37     18 10 00.449817 -22 42 31.60628
 2018-Sep-13 10:38     18 10 00.455095 -22 42 31.60784
 2018-Sep-13 10:39     18 10 00.460375 -22 42 31.60942
 2018-Sep-13 10:40     18 10 00.465656 -22 42 31.61100
 2018-Sep-13 10:41     18 10 00.470939 -22 42 31.61258
 2018-Sep-13 10:42  s  18 10 00.476223 -22 42 31.61417
 2018-Sep-13 10:43     18 10 00.481510 -22 42 31.61576
 2018-Sep-13 10:44     18 10 00.486797 -22 42 31.61736
 2018-Sep-13 10:45     18 10 00.492087 -22 42 31.61896
 2018-Sep-13 10:46     18 10 00.497378 -22 42 31.62057
 2018-Sep-13 10:47     18 10 00.502671 -22 42 31.62219
 2018-Sep-13 10:48     18 10 00.507966 -22 42 31.62381
 2018-Sep-13 10:49     18 10 00.513262 -22 42 31.62543
 2018-Sep-13 10:50     18 10 00.518560 -22 42 31.62706
 2018-Sep-13 10:51     18 10 00.523859 -22 42 31.62870
 2018-Sep-13 10:52     18 10 00.529160 -22 42 31.63034
 2018-Sep-13 10:53     18 10 00.534463 -22 42 31.63198
 2018-Sep-13 10:54     18 10 00.539768 -22 42 31.63364
 2018-Sep-13 10:55     18 10 00.545074 -22 42 31.63529
 2018-Sep-13 10:56     18 10 00.550382 -22 42 31.63696
 2018-Sep-13 10:57     18 10 00.555691 -22 42 31.63862
 2018-Sep-13 10:58     18 10 00.561002 -22 42 31.64030
 2018-Sep-13 10:59     18 10 00.566315 -22 42 31.64198
 2018-Sep-13 11:00     18 10 00.571630 -22 42 31.64366
 2018-Sep-13 11:01     18 10 00.576946 -22 42 31.64535
 2018-Sep-13 11:02     18 10 00.582264 -22 42 31.64705
 2018-Sep-13 11:03     18 10 00.587583 -22 42 31.64875
 2018-Sep-13 11:04     18 10 00.592904 -22 42 31.65046
 2018-Sep-13 11:05     18 10 00.598227 -22 42 31.65217
 2018-Sep-13 11:06     18 10 00.603552 -22 42 31.65389
 2018-Sep-13 11:07     18 10 00.608878 -22 42 31.65561
 2018-Sep-13 11:08     18 10 00.614206 -22 42 31.65734
 2018-Sep-13 11:09     18 10 00.619535 -22 42 31.65908
 2018-Sep-13 11:10     18 10 00.624866 -22 42 31.66082
 2018-Sep-13 11:11     18 10 00.630199 -22 42 31.66257
 2018-Sep-13 11:12     18 10 00.635533 -22 42 31.66432
 2018-Sep-13 11:13     18 10 00.640870 -22 42 31.66608
 2018-Sep-13 11:14     18 10 00.646207 -22 42 31.66785
 2018-Sep-13 11:15     18 10 00.651547 -22 42 31.66962
 2018-Sep-13 11:16     18 10 00.656888 -22 42 31.67140
 2018-Sep-13 11:17     18 10 00.662231 -22 42 31.67318
 2018-Sep-13 11:18     18 10 00.667575 -22 42 31.67497
 2018-Sep-13 11:19     18 10 00.672921 -22 42 31.67677
 2018-Sep-13 11:20     18 10 00.678269 -22 42 31.67857
 2018-Sep-13 11:21     18 10 00.683618 -22 42 31.68038
 2018-Sep-13 11:22     18 10 00.688969 -22 42 31.68220
 2018-Sep-13 11:23     18 10 00.694322 -22 42 31.68402
 2018-Sep-13 11:24     18 10 00.699676 -22 42 31.68584
 2018-Sep-13 11:25     18 10 00.705032 -22 42 31.68768
 2018-Sep-13 11:26     18 10 00.710390 -22 42 31.68952
 2018-Sep-13 11:27     18 10 00.715749 -22 42 31.69136
 2018-Sep-13 11:28     18 10 00.721110 -22 42 31.69321
 2018-Sep-13 11:29     18 10 00.726473 -22 42 31.69507
 2018-Sep-13 11:30     18 10 00.731837 -22 42 31.69694
 2018-Sep-13 11:31     18 10 00.737203 -22 42 31.69881
 2018-Sep-13 11:32     18 10 00.742571 -22 42 31.70069
 2018-Sep-13 11:33     18 10 00.747940 -22 42 31.70257
 2018-Sep-13 11:34     18 10 00.753311 -22 42 31.70446
 2018-Sep-13 11:35     18 10 00.758683 -22 42 31.70636
 2018-Sep-13 11:36     18 10 00.764058 -22 42 31.70826
 2018-Sep-13 11:37     18 10 00.769433 -22 42 31.71018
 2018-Sep-13 11:38     18 10 00.774811 -22 42 31.71209
